EARTHCARE               
1 59908U 24101A   24155.82844143  .00017590  00000+0  26065-3 0  9993
2 59908  96.9773 283.9570 0004665 121.9649 238.2060 15.55296477   913
